{
  "type": "FeatureCollection",
  "features": [
    {
      "type": "Feature",
      "properties": {
        "norad_id": 41866,
        "name": "GOES 16",
        "group": "weather",
        "lat": -0.018907679268730267,
        "lon": 63.39213565058443,
        "alt_km": 35799.21015800789,
        "timestamp": "2025-12-12T05:47:28.414630+00:00",
        "meta_object_name": "GOES 16",
        "meta_object_id": "2016-071A",
        "meta_epoch": "2025-12-11T23:17:13.425792",
        "meta_mean_motion": 1.00271655,
        "meta_eccentricity": 0.00032758,
        "meta_inclination": 0.0619,
        "meta_ra_of_asc_node": 105.8123,
        "meta_arg_of_pericenter": 156.8851,
        "meta_mean_anomaly": 62.8581,
        "meta_ephemeris_type": 0,
        "meta_classification_type": "U",
        "meta_norad_cat_id": 41866,
        "meta_element_set_no": 999,
        "meta_rev_at_epoch": 3322,
        "meta_bstar": 0,
        "meta_mean_motion_dot": -8.2e-07,
        "meta_mean_motion_ddot": 0,
        "tle_line1": "1 41866U 16071A   25345.97029428 -.00000082  00000+0  00000+0 0  9999",
        "tle_line2": "2 41866   0.0619 105.8123 0003275 156.8851  62.8581  1.00271655 33221"
      },
      "geometry": {
        "type": "Point",
        "coordinates": [
          63.39213565058443,
          -0.018907679268730267
        ]
      }
    },
    {
      "type": "Feature",
      "properties": {
        "norad_id": 41882,
        "name": "FENGYUN 4A",
        "group": "weather",
        "lat": -0.9252284329921524,
        "lon": -68.07338699741405,
        "alt_km": 35777.41086191108,
        "timestamp": "2025-12-12T05:47:28.414642+00:00",
        "meta_object_name": "FENGYUN 4A",
        "meta_object_id": "2016-077A",
        "meta_epoch": "2025-12-11T22:39:37.492416",
        "meta_mean_motion": 1.0027003,
        "meta_eccentricity": 0.00049021,
        "meta_inclination": 1.8474,
        "meta_ra_of_asc_node": 82.3949,
        "meta_arg_of_pericenter": 146.0972,
        "meta_mean_anomaly": 316.1466,
        "meta_ephemeris_type": 0,
        "meta_classification_type": "U",
        "meta_norad_cat_id": 41882,
        "meta_element_set_no": 999,
        "meta_rev_at_epoch": 3305,
        "meta_bstar": 0,
        "meta_mean_motion_dot": -3.48e-06,
        "meta_mean_motion_ddot": 0,
        "tle_line1": "1 41882U 16077A   25345.94418394 -.00000348  00000+0  00000+0 0  9999",
        "tle_line2": "2 41882   1.8474  82.3949 0004902 146.0972 316.1466  1.00270030 33059"
      },
      "geometry": {
        "type": "Point",
        "coordinates": [
          -68.07338699741405,
          -0.9252284329921524
        ]
      }
    },
    {
      "type": "Feature",
      "properties": {
        "norad_id": 41884,
        "name": "CYGFM05",
        "group": "weather",
        "lat": 34.27463658676967,
        "lon": 153.1141226556513,
        "alt_km": 416.02615554439944,
        "timestamp": "2025-12-12T05:47:28.414653+00:00",
        "meta_object_name": "CYGFM05",
        "meta_object_id": "2016-078A",
        "meta_epoch": "2025-12-11T12:19:44.236416",
        "meta_mean_motion": 15.47567747,
        "meta_eccentricity": 0.00099326,
        "meta_inclination": 34.9601,
        "meta_ra_of_asc_node": 55.1392,
        "meta_arg_of_pericenter": 172.194,
        "meta_mean_anomaly": 187.8938,
        "meta_ephemeris_type": 0,
        "meta_classification_type": "U",
        "meta_norad_cat_id": 41884,
        "meta_element_set_no": 999,
        "meta_rev_at_epoch": 49957,
        "meta_bstar": 0.00058459472,
        "meta_mean_motion_dot": 0.00031157,
        "meta_mean_motion_ddot": 0,
        "tle_line1": "1 41884U 16078A   25345.51370644  .00031157  00000+0  58459-3 0  9996",
        "tle_line2": "2 41884  34.9601  55.1392 0009932 172.1940 187.8938 15.47567747499573"
      },
      "geometry": {
        "type": "Point",
        "coordinates": [
          153.1141226556513,
          34.27463658676967
        ]
      }
    },
    {
      "type": "Feature",
      "properties": {
        "norad_id": 41885,
        "name": "CYGFM04",
        "group": "weather",
        "lat": -13.966605613217942,
        "lon": 4.305105905886405,
        "alt_km": 420.167409444085,
        "timestamp": "2025-12-12T05:47:28.414665+00:00",
        "meta_object_name": "CYGFM04",
        "meta_object_id": "2016-078B",
        "meta_epoch": "2025-12-11T11:21:10.464192",
        "meta_mean_motion": 15.50277122,
        "meta_eccentricity": 0.00092904,
        "meta_inclination": 34.9354,
        "meta_ra_of_asc_node": 30.2184,
        "meta_arg_of_pericenter": 199.3234,
        "meta_mean_anomaly": 160.7137,
        "meta_ephemeris_type": 0,
        "meta_classification_type": "U",
        "meta_norad_cat_id": 41885,
        "meta_element_set_no": 999,
        "meta_rev_at_epoch": 49974,
        "meta_bstar": 0.00063588717,
        "meta_mean_motion_dot": 0.00037316,
        "meta_mean_motion_ddot": 0,
        "tle_line1": "1 41885U 16078B   25345.47303778  .00037316  00000+0  63589-3 0  9999",
        "tle_line2": "2 41885  34.9354  30.2184 0009290 199.3234 160.7137 15.50277122499745"
      },
      "geometry": {
        "type": "Point",
        "coordinates": [
          4.305105905886405,
          -13.966605613217942
        ]
      }
    },
    {
      "type": "Feature",
      "properties": {
        "norad_id": 41886,
        "name": "CYGFM02",
        "group": "weather",
        "lat": -8.181444098000437,
        "lon": 11.628993575859718,
        "alt_km": 417.2645028763418,
        "timestamp": "2025-12-12T05:47:28.414676+00:00",
        "meta_object_name": "CYGFM02",
        "meta_object_id": "2016-078C",
        "meta_epoch": "2025-12-11T11:19:26.384160",
        "meta_mean_motion": 15.51650862,
        "meta_eccentricity": 0.00109769,
        "meta_inclination": 34.9444,
        "meta_ra_of_asc_node": 28.569,
        "meta_arg_of_pericenter": 198.8221,
        "meta_mean_anomaly": 161.2096,
        "meta_ephemeris_type": 0,
        "meta_classification_type": "U",
        "meta_norad_cat_id": 41886,
        "meta_element_set_no": 999,
        "meta_rev_at_epoch": 49987,
        "meta_bstar": 0.00064646241,
        "meta_mean_motion_dot": 0.00039891,
        "meta_mean_motion_ddot": 0,
        "tle_line1": "1 41886U 16078C   25345.47183315  .00039891  00000+0  64646-3 0  9998",
        "tle_line2": "2 41886  34.9444  28.5690 0010976 198.8221 161.2096 15.51650862499872"
      },
      "geometry": {
        "type": "Point",
        "coordinates": [
          11.628993575859718,
          -8.181444098000437
        ]
      }
    },
    {
      "type": "Feature",
      "properties": {
        "norad_id": 41887,
        "name": "CYGFM01",
        "group": "weather",
        "lat": 19.789168145965547,
        "lon": -158.27812598974864,
        "alt_km": 412.2930268050559,
        "timestamp": "2025-12-12T05:47:28.414686+00:00",
        "meta_object_name": "CYGFM01",
        "meta_object_id": "2016-078D",
        "meta_epoch": "2025-12-11T13:41:51.421056",
        "meta_mean_motion": 15.48144651,
        "meta_eccentricity": 0.00094971,
        "meta_inclination": 34.9432,
        "meta_ra_of_asc_node": 57.1248,
        "meta_arg_of_pericenter": 164.4274,
        "meta_mean_anomaly": 195.6741,
        "meta_ephemeris_type": 0,
        "meta_classification_type": "U",
        "meta_norad_cat_id": 41887,
        "meta_element_set_no": 999,
        "meta_rev_at_epoch": 49952,
        "meta_bstar": 0.00049978475,
        "meta_mean_motion_dot": 0.00027156,
        "meta_mean_motion_ddot": 0,
        "tle_line1": "1 41887U 16078D   25345.57073404  .00027156  00000+0  49978-3 0  9999",
        "tle_line2": "2 41887  34.9432  57.1248 0009497 164.4274 195.6741 15.48144651499520"
      },
      "geometry": {
        "type": "Point",
        "coordinates": [
          -158.27812598974864,
          19.789168145965547
        ]
      }
    },
    {
      "type": "Feature",
      "properties": {
        "norad_id": 41888,
        "name": "CYGFM08",
        "group": "weather",
        "lat": -5.7363402567871455,
        "lon": -135.99102646398669,
        "alt_km": 410.3973342486788,
        "timestamp": "2025-12-12T05:47:28.414698+00:00",
        "meta_object_name": "CYGFM08",
        "meta_object_id": "2016-078E",
        "meta_epoch": "2025-12-11T11:57:53.666784",
        "meta_mean_motion": 15.49345459,
        "meta_eccentricity": 0.00113806,
        "meta_inclination": 34.9463,
        "meta_ra_of_asc_node": 40.6034,
        "meta_arg_of_pericenter": 187.8178,
        "meta_mean_anomaly": 172.2368,
        "meta_ephemeris_type": 0,
        "meta_classification_type": "U",
        "meta_norad_cat_id": 41888,
        "meta_element_set_no": 999,
        "meta_rev_at_epoch": 49974,
        "meta_bstar": 0.00063122143,
        "meta_mean_motion_dot": 0.00035861,
        "meta_mean_motion_ddot": 0,
        "tle_line1": "1 41888U 16078E   25345.49853781  .00035861  00000+0  63122-3 0  9994",
        "tle_line2": "2 41888  34.9463  40.6034 0011380 187.8178 172.2368 15.49345459499741"
      },
      "geometry": {
        "type": "Point",
        "coordinates": [
          -135.99102646398669,
          -5.7363402567871455
        ]
      }
    }
  ]
}